[{"OBJECT_NAME":"STARLINK-6155","OBJECT_ID":"2023-088AE","EPOCH":"2026-03-09T22:00:01.999584","MEAN_MOTION":15.0814224,"ECCENTRICITY":6.889e-5,"INCLINATION":43.0008,"RA_OF_ASC_NODE":93.5945,"ARG_OF_PERICENTER":294.9582,"MEAN_ANOMALY":282.2332,"EPHEMERIS_TYPE":0,"CLASSIFICATION_TYPE":"U","NORAD_CAT_ID":57076,"ELEMENT_SET_NO":999,"REV_AT_EPOCH":557,"BSTAR":0.0031941456,"MEAN_MOTION_DOT":0.00050317,"MEAN_MOTION_DDOT":0},{"OBJECT_NAME":"LEMUR-2-SIERRINI","OBJECT_ID":"2024-149DR","EPOCH":"2026-03-09T19:24:50.445216","MEAN_MOTION":15.08682764,"ECCENTRICITY":0.00065795,"INCLINATION":97.6873,"RA_OF_ASC_NODE":151.1225,"ARG_OF_PERICENTER":147.8458,"MEAN_ANOMALY":212.3173,"EPHEMERIS_TYPE":0,"CLASSIFICATION_TYPE":"U","NORAD_CAT_ID":60579,"ELEMENT_SET_NO":999,"REV_AT_EPOCH":8546,"BSTAR":0.00092040134,"MEAN_MOTION_DOT":0.00014386,"MEAN_MOTION_DDOT":0}]
